ADRAS-J                 
1 58992U 24034A   24173.53149201  .00003895  00000+0  36382-3 0  9997
2 58992  98.2109 146.7471 0044710  36.5540 323.8716 14.94049645 18514
